{
  "links" : {
    "next" : "https://api.nasa.gov/neo/rest/v1/feed?start_date=1995-11-16&end_date=1995-11-16&detailed=true&api_key=t0TVs3DtDT2H8Oy2Zy8m2eVrNsAVKAexjcZXUckd",
    "prev" : "https://api.nasa.gov/neo/rest/v1/feed?start_date=1995-11-14&end_date=1995-11-14&detailed=true&api_key=t0TVs3DtDT2H8Oy2Zy8m2eVrNsAVKAexjcZXUckd",
    "self" : "https://api.nasa.gov/neo/rest/v1/feed?start_date=1995-11-15&end_date=1995-11-15&detailed=true&api_key=t0TVs3DtDT2H8Oy2Zy8m2eVrNsAVKAexjcZXUckd"
  },
  "element_count" : 3,
  "near_earth_objects" : {
    "1995-11-15" : [ {
      "links" : {
        "self" : "https://api.nasa.gov/neo/rest/v1/neo/2221980?api_key=t0TVs3DtDT2H8Oy2Zy8m2eVrNsAVKAexjcZXUckd"
      },
      "neo_reference_id" : "2221980",
      "name" : "221980 (1996 EO)",
      "nasa_jpl_url" : "http://ssd.jpl.nasa.gov/sbdb.cgi?sstr=2221980",
      "absolute_magnitude_h" : 19.0,
      "estimated_diameter" : {
        "kilometers" : {
          "estimated_diameter_min" : 0.4212646106,
          "estimated_diameter_max" : 0.9419763057
        },
        "meters" : {
          "estimated_diameter_min" : 421.2646105562,
          "estimated_diameter_max" : 941.9763057186
        },
        "miles" : {
          "estimated_diameter_min" : 0.2617616123,
          "estimated_diameter_max" : 0.5853167591
        },
        "feet" : {
          "estimated_diameter_min" : 1382.1017848971,
          "estimated_diameter_max" : 3090.4735428537
        }
      },
      "is_potentially_hazardous_asteroid" : true,
      "close_approach_data" : [ {
        "close_approach_date" : "1995-11-15",
        "epoch_date_close_approach" : 816422400000,
        "relative_velocity" : {
          "kilometers_per_second" : "12.1380316514",
          "kilometers_per_hour" : "43696.9139451541",
          "miles_per_hour" : "27151.5630010876"
        },
        "miss_distance" : {
          "astronomical" : "0.3543838139",
          "lunar" : "137.8553009033",
          "kilometers" : "53015068",
          "miles" : "32942034"
        },
        "orbiting_body" : "Earth"
      } ],
      "orbital_data" : {
        "orbit_id" : "24",
        "orbit_determination_date" : "2017-04-06 09:25:14",
        "orbit_uncertainty" : "0",
        "minimum_orbit_intersection" : ".0338689",
        "jupiter_tisserand_invariant" : "4.744",
        "epoch_osculation" : "2458000.5",
        "eccentricity" : ".4007049618331717",
        "semi_major_axis" : "1.341419601931606",
        "inclination" : "21.59647394036671",
        "ascending_node_longitude" : "356.5206024962067",
        "orbital_period" : "567.4732566875158",
        "perihelion_distance" : ".8039061115373333",
        "perihelion_argument" : "64.62687148731517",
        "aphelion_distance" : "1.878933092325878",
        "perihelion_time" : "2457993.823002468148",
        "mean_anomaly" : "4.235828002711376",
        "mean_motion" : ".6343911290223799",
        "equinox" : "J2000"
      }
    }, {
      "links" : {
        "self" : "https://api.nasa.gov/neo/rest/v1/neo/3431599?api_key=t0TVs3DtDT2H8Oy2Zy8m2eVrNsAVKAexjcZXUckd"
      },
      "neo_reference_id" : "3431599",
      "name" : "(2008 TD27)",
      "nasa_jpl_url" : "http://ssd.jpl.nasa.gov/sbdb.cgi?sstr=3431599",
      "absolute_magnitude_h" : 20.0,
      "estimated_diameter" : {
        "kilometers" : {
          "estimated_diameter_min" : 0.2658,
          "estimated_diameter_max" : 0.5943468684
        },
        "meters" : {
          "estimated_diameter_min" : 265.8,
          "estimated_diameter_max" : 594.3468684194
        },
        "miles" : {
          "estimated_diameter_min" : 0.1651604118,
          "estimated_diameter_max" : 0.369309908
        },
        "feet" : {
          "estimated_diameter_min" : 872.047272,
          "estimated_diameter_max" : 1949.9569797852
        }
      },
      "is_potentially_hazardous_asteroid" : false,
      "close_approach_data" : [ {
        "close_approach_date" : "1995-11-15",
        "epoch_date_close_approach" : 816422400000,
        "relative_velocity" : {
          "kilometers_per_second" : "21.5761473965",
          "kilometers_per_hour" : "77674.1306273892",
          "miles_per_hour" : "48263.6841112241"
        },
        "miss_distance" : {
          "astronomical" : "0.2447450702",
          "lunar" : "95.2058334351",
          "kilometers" : "36613344",
          "miles" : "22750476"
        },
        "orbiting_body" : "Earth"
      } ],
      "orbital_data" : {
        "orbit_id" : "18",
        "orbit_determination_date" : "2017-04-06 09:02:34",
        "orbit_uncertainty" : "5",
        "minimum_orbit_intersection" : ".111975",
        "jupiter_tisserand_invariant" : "3.343",
        "epoch_osculation" : "2458000.5",
        "eccentricity" : ".6400994485240766",
        "semi_major_axis" : "2.203387401094659",
        "inclination" : "10.93665153288012",
        "ascending_node_longitude" : "286.6297806146021",
        "orbital_period" : "1194.633583898861",
        "perihelion_distance" : ".7930003407690691",
        "perihelion_argument" : "198.8800731866516",
        "aphelion_distance" : "3.613774461420248",
        "perihelion_time" : "2458438.592556191543",
        "mean_anomaly" : "227.9818461873178",
        "mean_motion" : ".3013476306476229",
        "equinox" : "J2000"
      }
    }, {
      "links" : {
        "self" : "https://api.nasa.gov/neo/rest/v1/neo/3736387?api_key=t0TVs3DtDT2H8Oy2Zy8m2eVrNsAVKAexjcZXUckd"
      },
      "neo_reference_id" : "3736387",
      "name" : "(2015 XT168)",
      "nasa_jpl_url" : "http://ssd.jpl.nasa.gov/sbdb.cgi?sstr=3736387",
      "absolute_magnitude_h" : 21.0,
      "estimated_diameter" : {
        "kilometers" : {
          "estimated_diameter_min" : 0.1677084622,
          "estimated_diameter_max" : 0.3750075218
        },
        "meters" : {
          "estimated_diameter_min" : 167.7084621628,
          "estimated_diameter_max" : 375.0075217981
        },
        "miles" : {
          "estimated_diameter_min" : 0.1042091748,
          "estimated_diameter_max" : 0.2330187988
        },
        "feet" : {
          "estimated_diameter_min" : 550.2246310023,
          "estimated_diameter_max" : 1230.3396778159
        }
      },
      "is_potentially_hazardous_asteroid" : false,
      "close_approach_data" : [ {
        "close_approach_date" : "1995-11-15",
        "epoch_date_close_approach" : 816422400000,
        "relative_velocity" : {
          "kilometers_per_second" : "16.5015793479",
          "kilometers_per_hour" : "59405.6856522805",
          "miles_per_hour" : "36912.3828432184"
        },
        "miss_distance" : {
          "astronomical" : "0.1877581409",
          "lunar" : "73.0379180908",
          "kilometers" : "28088220",
          "miles" : "17453210"
        },
        "orbiting_body" : "Earth"
      } ],
      "orbital_data" : {
        "orbit_id" : "13",
        "orbit_determination_date" : "2017-04-06 08:30:03",
        "orbit_uncertainty" : "2",
        "minimum_orbit_intersection" : ".0679351",
        "jupiter_tisserand_invariant" : "6.311",
        "epoch_osculation" : "2458000.5",
        "eccentricity" : ".2757898058808471",
        "semi_major_axis" : ".9388650495368165",
        "inclination" : "19.74382384323929",
        "ascending_node_longitude" : "58.63805153976577",
        "orbital_period" : "332.279222165562",
        "perihelion_distance" : ".6799356397767461",
        "perihelion_argument" : "225.5447936950166",
        "aphelion_distance" : "1.197794459296887",
        "perihelion_time" : "2457930.877645703790",
        "mean_anomaly" : "75.43067960519984",
        "mean_motion" : "1.083426154827778",
        "equinox" : "J2000"
      }
    } ]
  }
}